start=new Date('2023-01-26T00:00:00.000Z').valueOf();
sats=[{"CENTER_NAME":"EARTH","RA_OF_ASC_NODE":"194.5142","OBJECT_NAME":"STARLINK-2647","INCLINATION":"53.0546","NORAD_CAT_ID":"48658","RCS_SIZE":"LARGE","REF_FRAME":"TEME","TLE_LINE1":"1 48658U 21044W   23025.75018025  .00002435  00000-0  18229-3 0  9991","BSTAR":"0.00018229000000","MEAN_MOTION_DOT":"0.00002435","TLE_LINE2":"2 48658  53.0546 194.5142 0001043  72.8192 287.2911 15.06399405 92046","REV_AT_EPOCH":"9204","SITE":"AFETR","LAUNCH_DATE":"2021-05-26","ELEMENT_SET_NO":"999","MEAN_ANOMALY":"287.2911","SEMIMAJOR_AXIS":"6925.350","OBJECT_ID":"2021-044W","ECCENTRICITY":"0.00010430","OBJECT_TYPE":"PAYLOAD","GP_ID":"223716888","ARG_OF_PERICENTER":"72.8192","TIME_SYSTEM":"UTC","COUNTRY_CODE":"US","APOAPSIS":"547.938","FILE":"3761360","EPHEMERIS_TYPE":"0","EPOCH":"2023-01-25T18:00:15.573600","DECAY_DATE":null,"CLASSIFICATION_TYPE":"U","PERIAPSIS":"546.493","MEAN_ELEMENT_THEORY":"SGP4","MEAN_MOTION_DDOT":"0.0000000000000","MEAN_MOTION":"15.06399405","PERIOD":"95.592"},{"OBJECT_TYPE":"PAYLOAD","OBJECT_ID":"2021-044X","ECCENTRICITY":"0.00012600","TIME_SYSTEM":"UTC","GP_ID":"223715636","ARG_OF_PERICENTER":"89.1769","COUNTRY_CODE":"US","FILE":"3761360","APOAPSIS":"548.094","SITE":"AFETR","MEAN_ANOMALY":"270.9364","ELEMENT_SET_NO":"999","LAUNCH_DATE":"2021-05-26","SEMIMAJOR_AXIS":"6925.356","MEAN_MOTION_DDOT":"0.0000000000000","MEAN_MOTION":"15.06397412","PERIOD":"95.592","EPHEMERIS_TYPE":"0","DECAY_DATE":null,"EPOCH":"2023-01-25T17:54:56.450880","CLASSIFICATION_TYPE":"U","MEAN_ELEMENT_THEORY":"SGP4","PERIAPSIS":"546.349","INCLINATION":"53.0533","NORAD_CAT_ID":"48659","REF_FRAME":"TEME","RCS_SIZE":"LARGE","CENTER_NAME":"EARTH","RA_OF_ASC_NODE":"194.5338","OBJECT_NAME":"STARLINK-2717","BSTAR":"0.00001080400000","TLE_LINE2":"2 48659  53.0533 194.5338 0001260  89.1769 270.9364 15.06397412 92049","MEAN_MOTION_DOT":"-0.00000120","REV_AT_EPOCH":"9204","TLE_LINE1":"1 48659U 21044X   23025.74648670 -.00000120  00000-0  10804-4 0  9998"},{"TLE_LINE1":"1 48660U 21044Y   23025.74280204  .00001166  00000-0  97158-4 0  9992","REV_AT_EPOCH":"9204","MEAN_MOTION_DOT":"0.00001166","TLE_LINE2":"2 48660  53.0530 194.5493 0000679  77.3192 282.7873 15.06393236 92048","BSTAR":"0.00009715800000","OBJECT_NAME":"STARLINK-2688","RA_OF_ASC_NODE":"194.5493","CENTER_NAME":"EARTH","RCS_SIZE":"LARGE","REF_FRAME":"TEME","NORAD_CAT_ID":"48660","INCLINATION":"53.0530","MEAN_ELEMENT_THEORY":"SGP4","PERIAPSIS":"546.764","CLASSIFICATION_TYPE":"U","EPOCH":"2023-01-25T17:49:38.096256","DECAY_DATE":null,"EPHEMERIS_TYPE":"0","PERIOD":"95.593","MEAN_MOTION_DDOT":"0.0000000000000","MEAN_MOTION":"15.06393236","SEMIMAJOR_AXIS":"6925.369","LAUNCH_DATE":"2021-05-26","ELEMENT_SET_NO":"999","MEAN_ANOMALY":"282.7873","SITE":"AFETR","APOAPSIS":"547.705","FILE":"3761360","COUNTRY_CODE":"US","GP_ID":"223715886","ARG_OF_PERICENTER":"77.3192","TIME_SYSTEM":"UTC","ECCENTRICITY":"0.00006790","OBJECT_ID":"2021-044Y","OBJECT_TYPE":"PAYLOAD"},{"INCLINATION":"53.0548","REF_FRAME":"TEME","RCS_SIZE":"LARGE","NORAD_CAT_ID":"48661","RA_OF_ASC_NODE":"184.2437","CENTER_NAME":"EARTH","OBJECT_NAME":"STARLINK-2708","TLE_LINE2":"2 48661  53.0548 184.2437 0001031  98.1455 261.9651 15.06395382 92191","MEAN_MOTION_DOT":"0.00000564","BSTAR":"0.00005672300000","REV_AT_EPOCH":"9219","TLE_LINE1":"1 48661U 21044Z   23025.81007237  .00000564  00000-0  56723-4 0  9998","TIME_SYSTEM":"UTC","GP_ID":"223716638","ARG_OF_PERICENTER":"98.1455","OBJECT_TYPE":"PAYLOAD","OBJECT_ID":"2021-044Z","ECCENTRICITY":"0.00010310","FILE":"3761360","APOAPSIS":"547.942","COUNTRY_CODE":"US","SITE":"AFETR","SEMIMAJOR_AXIS":"6925.363","MEAN_ANOMALY":"261.9651","ELEMENT_SET_NO":"999","LAUNCH_DATE":"2021-05-26","MEAN_MOTION_DDOT":"0.0000000000000","MEAN_MOTION":"15.06395382","PERIOD":"95.592","DECAY_DATE":null,"EPOCH":"2023-01-25T19:26:30.252768","EPHEMERIS_TYPE":"0","PERIAPSIS":"546.514","MEAN_ELEMENT_THEORY":"SGP4","CLASSIFICATION_TYPE":"U"},{"RCS_SIZE":"LARGE","REF_FRAME":"TEME","NORAD_CAT_ID":"48662","INCLINATION":"53.0536","OBJECT_NAME":"STARLINK-2726","RA_OF_ASC_NODE":"184.5706","CENTER_NAME":"EARTH","REV_AT_EPOCH":"9218","MEAN_MOTION_DOT":"0.00000107","TLE_LINE2":"2 48662  53.0536 184.5706 0001176  85.5411 274.5712 15.06400495 92182","BSTAR":"0.00002610000000","TLE_LINE1":"1 48662U 21044AA  23025.74003883  .00000107  00000-0  26100-4 0  9993","APOAPSIS":"548.026","FILE":"3761360","COUNTRY_CODE":"US","GP_ID":"223716389","ARG_OF_PERICENTER":"85.5411","TIME_SYSTEM":"UTC","ECCENTRICITY":"0.00011760","OBJECT_ID":"2021-044AA","OBJECT_TYPE":"PAYLOAD","SEMIMAJOR_AXIS":"6925.347","ELEMENT_SET_NO":"999","LAUNCH_DATE":"2021-05-26","MEAN_ANOMALY":"274.5712","SITE":"AFETR","PERIOD":"95.592","MEAN_MOTION_DDOT":"0.0000000000000","MEAN_MOTION":"15.06400495","MEAN_ELEMENT_THEORY":"SGP4","PERIAPSIS":"546.398","CLASSIFICATION_TYPE":"U","EPOCH":"2023-01-25T17:45:39.354912","DECAY_DATE":null,"EPHEMERIS_TYPE":"0"},{"OBJECT_NAME":"STARLINK-2667","CENTER_NAME":"EARTH","RA_OF_ASC_NODE":"184.5887","NORAD_CAT_ID":"48663","RCS_SIZE":"LARGE","REF_FRAME":"TEME","INCLINATION":"53.0537","TLE_LINE1":"1 48663U 21044AB  23025.73635288  .00000364  00000-0  43340-4 0  9993","REV_AT_EPOCH":"9218","BSTAR":"0.00004334000000","MEAN_MOTION_DOT":"0.00000364","TLE_LINE2":"2 48663  53.0537 184.5887 0000971  97.3950 262.7149 15.06393288 92189","LAUNCH_DATE":"2021-05-26","ELEMENT_SET_NO":"999","MEAN_ANOMALY":"262.7149","SEMIMAJOR_AXIS":"6925.369","SITE":"AFETR","COUNTRY_CODE":"US","APOAPSIS":"547.907","FILE":"3761360","OBJECT_ID":"2021-044AB","ECCENTRICITY":"0.00009710","OBJECT_TYPE":"PAYLOAD","GP_ID":"223715137","ARG_OF_PERICENTER":"97.3950","TIME_SYSTEM":"UTC","CLASSIFICATION_TYPE":"U","MEAN_ELEMENT_THEORY":"SGP4","PERIAPSIS":"546.562","EPHEMERIS_TYPE":"0","EPOCH":"2023-01-25T17:40:20.888832","DECAY_DATE":null,"PERIOD":"95.593","MEAN_MOTION_DDOT":"0.0000000000000","MEAN_MOTION":"15.06393288"},{"INCLINATION":"53.0536","NORAD_CAT_ID":"48664","RCS_SIZE":"LARGE","REF_FRAME":"TEME","CENTER_NAME":"EARTH","RA_OF_ASC_NODE":"184.6063","OBJECT_NAME":"STARLINK-2709","BSTAR":"0.00014665000000","MEAN_MOTION_DOT":"0.00001903","TLE_LINE2":"2 48664  53.0536 184.6063 0001230  96.4708 263.6421 15.06388132 92181","REV_AT_EPOCH":"9218","TLE_LINE1":"1 48664U 21044AC  23025.73266978  .00001903  00000-0  14665-3 0  9997","ECCENTRICITY":"0.00012300","OBJECT_ID":"2021-044AC","OBJECT_TYPE":"PAYLOAD","ARG_OF_PERICENTER":"96.4708","GP_ID":"223715387","TIME_SYSTEM":"UTC","COUNTRY_CODE":"US","APOAPSIS":"548.102","FILE":"3761360","SITE":"AFETR","LAUNCH_DATE":"2021-05-26","ELEMENT_SET_NO":"999","MEAN_ANOMALY":"263.6421","SEMIMAJOR_AXIS":"6925.385","MEAN_MOTION_DDOT":"0.0000000000000","MEAN_MOTION":"15.06388132","PERIOD":"95.593","EPHEMERIS_TYPE":"0","EPOCH":"2023-01-25T17:35:02.668992","DECAY_DATE":null,"CLASSIFICATION_TYPE":"U","PERIAPSIS":"546.398","MEAN_ELEMENT_THEORY":"SGP4"},{"DECAY_DATE":null,"EPOCH":"2023-01-25T16:19:22.291968","EPHEMERIS_TYPE":"0","PERIAPSIS":"546.478","MEAN_ELEMENT_THEORY":"SGP4","CLASSIFICATION_TYPE":"U","MEAN_MOTION":"15.06396240","MEAN_MOTION_DDOT":"0.0000000000000","PERIOD":"95.592","SITE":"AFETR","SEMIMAJOR_AXIS":"6925.360","MEAN_ANOMALY":"272.6755","ELEMENT_SET_NO":"999","LAUNCH_DATE":"2021-05-26","TIME_SYSTEM":"UTC","ARG_OF_PERICENTER":"87.4357","GP_ID":"223716139","OBJECT_TYPE":"PAYLOAD","ECCENTRICITY":"0.00010790","OBJECT_ID":"2021-044AD","FILE":"3761360","APOAPSIS":"547.972","COUNTRY_CODE":"US","TLE_LINE1":"1 48665U 21044AD  23025.68011912  .00000716  00000-0  66958-4 0  9992","TLE_LINE2":"2 48665  53.0558 184.8307 0001079  87.4357 272.6755 15.06396240 92178","MEAN_MOTION_DOT":"0.00000716","BSTAR":"0.00006695800000","REV_AT_EPOCH":"9217","RA_OF_ASC_NODE":"184.8307","CENTER_NAME":"EARTH","OBJECT_NAME":"STARLINK-2653","INCLINATION":"53.0558","REF_FRAME":"TEME","RCS_SIZE":"LARGE","NORAD_CAT_ID":"48665"},{"SEMIMAJOR_AXIS":"6925.337","MEAN_ANOMALY":"269.5054","LAUNCH_DATE":"2021-05-26","ELEMENT_SET_NO":"999","SITE":"AFETR","FILE":"3761360","APOAPSIS":"547.911","COUNTRY_CODE":"US","TIME_SYSTEM":"UTC","GP_ID":"223716889","ARG_OF_PERICENTER":"90.6052","OBJECT_TYPE":"PAYLOAD","ECCENTRICITY":"0.00010240","OBJECT_ID":"2021-044AE","MEAN_ELEMENT_THEORY":"SGP4","PERIAPSIS":"546.493","CLASSIFICATION_TYPE":"U","DECAY_DATE":null,"EPOCH":"2023-01-25T18:12:15.897312","EPHEMERIS_TYPE":"0","PERIOD":"95.592","MEAN_MOTION_DDOT":"0.0000000000000","MEAN_MOTION":"15.06403810","OBJECT_NAME":"STARLINK-2666","RA_OF_ASC_NODE":"184.9645","CENTER_NAME":"EARTH","REF_FRAME":"TEME","RCS_SIZE":"LARGE","NORAD_CAT_ID":"48666","INCLINATION":"53.0530","TLE_LINE1":"1 48666U 21044AE  23025.75851733  .00001476  00000-0  11792-3 0  9993","REV_AT_EPOCH":"9217","TLE_LINE2":"2 48666  53.0530 184.9645 0001024  90.6052 269.5054 15.06403810 92172","MEAN_MOTION_DOT":"0.00001476","BSTAR":"0.00011792000000"},{"RCS_SIZE":"LARGE","REF_FRAME":"TEME","NORAD_CAT_ID":"48667","INCLINATION":"53.0531","OBJECT_NAME":"STARLINK-2735","RA_OF_ASC_NODE":"184.6212","CENTER_NAME":"EARTH","REV_AT_EPOCH":"9218","MEAN_MOTION_DOT":"-0.00000858","TLE_LINE2":"2 48667  53.0531 184.6212 0001197  90.8376 269.2750 15.06404924 92181","BSTAR":"-0.00003874300000","TLE_LINE1":"1 48667U 21044AF  23025.72897935 -.00000858  00000-0 -38743-4 0  9996","APOAPSIS":"548.027","FILE":"3761360","COUNTRY_CODE":"US","ARG_OF_PERICENTER":"90.8376","GP_ID":"223715637","TIME_SYSTEM":"UTC","ECCENTRICITY":"0.00011970","OBJECT_ID":"2021-044AF","OBJECT_TYPE":"PAYLOAD","SEMIMAJOR_AXIS":"6925.333","ELEMENT_SET_NO":"999","LAUNCH_DATE":"2021-05-26","MEAN_ANOMALY":"269.2750","SITE":"AFETR","PERIOD":"95.592","MEAN_MOTION":"15.06404924","MEAN_MOTION_DDOT":"0.0000000000000","PERIAPSIS":"546.370","MEAN_ELEMENT_THEORY":"SGP4","CLASSIFICATION_TYPE":"U","EPOCH":"2023-01-25T17:29:43.815840","DECAY_DATE":null,"EPHEMERIS_TYPE":"0"}];
